{
  "type": "FeatureCollection",
  "features": [
    {
      "type": "Feature",
      "properties": {
        "norad_id": 66174,
        "name": "HTV-X1",
        "group": "stations",
        "lat": 46.280121076574204,
        "lon": -79.80816283991085,
        "alt_km": 412.8445529148985,
        "timestamp": "2025-12-09T23:33:22.625938+00:00",
        "meta_object_name": "HTV-X1",
        "meta_object_id": "2025-241A",
        "meta_epoch": "2025-12-09T12:14:10.839552",
        "meta_mean_motion": 15.49447168,
        "meta_eccentricity": 0.00034,
        "meta_inclination": 51.631,
        "meta_ra_of_asc_node": 158.4724,
        "meta_arg_of_pericenter": 223.8185,
        "meta_mean_anomaly": 136.2534,
        "meta_ephemeris_type": 0,
        "meta_classification_type": "U",
        "meta_norad_cat_id": 66174,
        "meta_element_set_no": 999,
        "meta_rev_at_epoch": 51,
        "meta_bstar": 0.00026025969,
        "meta_mean_motion_dot": 0.00014141,
        "meta_mean_motion_ddot": 0,
        "tle_line1": "1 66174U 25241A   25343.50984768  .00014141  00000+0  26026-3 0  9991",
        "tle_line2": "2 66174  51.6310 158.4724 0003400 223.8185 136.2534 15.49447168   518"
      },
      "geometry": {
        "type": "Point",
        "coordinates": [
          -79.80816283991085,
          46.280121076574204
        ]
      }
    },
    {
      "type": "Feature",
      "properties": {
        "norad_id": 66515,
        "name": "SZ-21 MODULE",
        "group": "stations",
        "lat": -3.1667353601104606,
        "lon": 29.27769035548164,
        "alt_km": 382.4807683557001,
        "timestamp": "2025-12-09T23:33:22.625952+00:00",
        "meta_object_name": "SZ-21 MODULE",
        "meta_object_id": "2025-246C",
        "meta_epoch": "2025-12-09T11:18:10.159488",
        "meta_mean_motion": 15.62240002,
        "meta_eccentricity": 0.0006286,
        "meta_inclination": 41.4772,
        "meta_ra_of_asc_node": 35.9831,
        "meta_arg_of_pericenter": 242.4237,
        "meta_mean_anomaly": 117.5964,
        "meta_ephemeris_type": 0,
        "meta_classification_type": "U",
        "meta_norad_cat_id": 66515,
        "meta_element_set_no": 999,
        "meta_rev_at_epoch": 393,
        "meta_bstar": 0.00035876146,
        "meta_mean_motion_dot": 0.00032351,
        "meta_mean_motion_ddot": 0,
        "tle_line1": "1 66515U 25246C   25343.47095092  .00032351  00000+0  35876-3 0  9990",
        "tle_line2": "2 66515  41.4772  35.9831 0006286 242.4237 117.5964 15.62240002  3935"
      },
      "geometry": {
        "type": "Point",
        "coordinates": [
          29.27769035548164,
          -3.1667353601104606
        ]
      }
    },
    {
      "type": "Feature",
      "properties": {
        "norad_id": 66645,
        "name": "SHENZHOU-22",
        "group": "stations",
        "lat": 35.044011479442794,
        "lon": 160.8712208495486,
        "alt_km": 387.047207932078,
        "timestamp": "2025-12-09T23:33:22.625963+00:00",
        "meta_object_name": "SHENZHOU-22",
        "meta_object_id": "2025-272A",
        "meta_epoch": "2025-12-09T13:49:14.456064",
        "meta_mean_motion": 15.58965688,
        "meta_eccentricity": 0.00089597,
        "meta_inclination": 41.4682,
        "meta_ra_of_asc_node": 35.9133,
        "meta_arg_of_pericenter": 5.1145,
        "meta_mean_anomaly": 354.9784,
        "meta_ephemeris_type": 0,
        "meta_classification_type": "U",
        "meta_norad_cat_id": 66645,
        "meta_element_set_no": 999,
        "meta_rev_at_epoch": 26300,
        "meta_bstar": 0.00041052725,
        "meta_mean_motion_dot": 0.00032682,
        "meta_mean_motion_ddot": 0,
        "tle_line1": "1 66645U 25272A   25343.57586176  .00032682  00000+0  41053-3 0  9993",
        "tle_line2": "2 66645  41.4682  35.9133 0008959   5.1145 354.9784 15.58965688263007"
      },
      "geometry": {
        "type": "Point",
        "coordinates": [
          160.8712208495486,
          35.044011479442794
        ]
      }
    },
    {
      "type": "Feature",
      "properties": {
        "norad_id": 66664,
        "name": "SOYUZ-MS 28",
        "group": "stations",
        "lat": 46.280120054481365,
        "lon": -79.80815981466787,
        "alt_km": 412.84455297837394,
        "timestamp": "2025-12-09T23:33:22.625974+00:00",
        "meta_object_name": "SOYUZ-MS 28",
        "meta_object_id": "2025-275A",
        "meta_epoch": "2025-12-09T12:14:10.839552",
        "meta_mean_motion": 15.49447168,
        "meta_eccentricity": 0.00034,
        "meta_inclination": 51.631,
        "meta_ra_of_asc_node": 158.4724,
        "meta_arg_of_pericenter": 223.8185,
        "meta_mean_anomaly": 136.2534,
        "meta_ephemeris_type": 0,
        "meta_classification_type": "U",
        "meta_norad_cat_id": 66664,
        "meta_element_set_no": 999,
        "meta_rev_at_epoch": 128,
        "meta_bstar": 0.00026025969,
        "meta_mean_motion_dot": 0.00014141,
        "meta_mean_motion_ddot": 0,
        "tle_line1": "1 66664U 25275A   25343.50984768  .00014141  00000+0  26026-3 0  9992",
        "tle_line2": "2 66664  51.6310 158.4724 0003400 223.8185 136.2534 15.49447168  1287"
      },
      "geometry": {
        "type": "Point",
        "coordinates": [
          -79.80815981466787,
          46.280120054481365
        ]
      }
    },
    {
      "type": "Feature",
      "properties": {
        "norad_id": 66906,
        "name": "1998-067XS",
        "group": "stations",
        "lat": 35.081997930794536,
        "lon": -57.71761835171207,
        "alt_km": 409.63217429111864,
        "timestamp": "2025-12-09T23:33:22.625984+00:00",
        "meta_object_name": "1998-067XS",
        "meta_object_id": "1998-067XS",
        "meta_epoch": "2025-12-09T12:09:24.113376",
        "meta_mean_motion": 15.50312686,
        "meta_eccentricity": 0.00039811,
        "meta_inclination": 51.63,
        "meta_ra_of_asc_node": 158.4502,
        "meta_arg_of_pericenter": 188.2752,
        "meta_mean_anomaly": 171.8172,
        "meta_ephemeris_type": 0,
        "meta_classification_type": "U",
        "meta_norad_cat_id": 66906,
        "meta_element_set_no": 999,
        "meta_rev_at_epoch": 111,
        "meta_bstar": 0.00059211588,
        "meta_mean_motion_dot": 0.00033864,
        "meta_mean_motion_ddot": 0,
        "tle_line1": "1 66906U 98067XS  25343.50652909  .00033864  00000+0  59212-3 0  9995",
        "tle_line2": "2 66906  51.6300 158.4502 0003981 188.2752 171.8172 15.50312686  1110"
      },
      "geometry": {
        "type": "Point",
        "coordinates": [
          -57.71761835171207,
          35.081997930794536
        ]
      }
    },
    {
      "type": "Feature",
      "properties": {
        "norad_id": 66907,
        "name": "1998-067XT",
        "group": "stations",
        "lat": 29.756895672380615,
        "lon": -50.85510180416867,
        "alt_km": 409.093867840179,
        "timestamp": "2025-12-09T23:33:22.625998+00:00",
        "meta_object_name": "1998-067XT",
        "meta_object_id": "1998-067XT",
        "meta_epoch": "2025-12-09T12:07:37.114752",
        "meta_mean_motion": 15.50864429,
        "meta_eccentricity": 0.00048036,
        "meta_inclination": 51.6307,
        "meta_ra_of_asc_node": 158.4423,
        "meta_arg_of_pericenter": 208.5081,
        "meta_mean_anomaly": 151.5646,
        "meta_ephemeris_type": 0,
        "meta_classification_type": "U",
        "meta_norad_cat_id": 66907,
        "meta_element_set_no": 999,
        "meta_rev_at_epoch": 111,
        "meta_bstar": 0.0012921241,
        "meta_mean_motion_dot": 0.00076342,
        "meta_mean_motion_ddot": 0,
        "tle_line1": "1 66907U 98067XT  25343.50529068  .00076342  00000+0  12921-2 0  9998",
        "tle_line2": "2 66907  51.6307 158.4423 0004803 208.5081 151.5646 15.50864429  1113"
      },
      "geometry": {
        "type": "Point",
        "coordinates": [
          -50.85510180416867,
          29.756895672380615
        ]
      }
    },
    {
      "type": "Feature",
      "properties": {
        "norad_id": 66908,
        "name": "1998-067XU",
        "group": "stations",
        "lat": 28.90903239747742,
        "lon": -49.871189178249686,
        "alt_km": 408.90724360527474,
        "timestamp": "2025-12-09T23:33:22.626009+00:00",
        "meta_object_name": "1998-067XU",
        "meta_object_id": "1998-067XU",
        "meta_epoch": "2025-12-09T15:12:54.016992",
        "meta_mean_motion": 15.50928353,
        "meta_eccentricity": 0.00050029,
        "meta_inclination": 51.6301,
        "meta_ra_of_asc_node": 157.8011,
        "meta_arg_of_pericenter": 207.486,
        "meta_mean_anomaly": 152.5865,
        "meta_ephemeris_type": 0,
        "meta_classification_type": "U",
        "meta_norad_cat_id": 66908,
        "meta_element_set_no": 999,
        "meta_rev_at_epoch": 113,
        "meta_bstar": 0.0012603324,
        "meta_mean_motion_dot": 0.00074609,
        "meta_mean_motion_ddot": 0,
        "tle_line1": "1 66908U 98067XU  25343.63395853  .00074609  00000+0  12603-2 0  9997",
        "tle_line2": "2 66908  51.6301 157.8011 0005002 207.4860 152.5865 15.50928353  1132"
      },
      "geometry": {
        "type": "Point",
        "coordinates": [
          -49.871189178249686,
          28.90903239747742
        ]
      }
    }
  ]
}